{
  "norad_id": 68712,
  "name": "STARLINK-37318",
  "history": [
    {
      "epoch": "2026-04-23T13:59:18.501792Z",
      "apogee_km": 316.4909937935645,
      "perigee_km": 314.9921005092865,
      "latitude_deg": 1.8110572567323595e-05,
      "longitude_deg": 134.39911508026069,
      "height_km": 316.17336524584914,
      "semi_major_axis_km": 6693.878547151426,
      "eccentricity": 0.00011196,
      "inclination_deg": 53.1598,
      "raan_deg": 195.8542,
      "arg_perigee_deg": 49.3573,
      "mean_anomaly_deg": 310.7549,
      "mean_motion_rev_day": 15.85207139
    }
  ]
}