STARLINK-37318          
1 68712U 26081P   26113.58285303 -.00724257  00000+0 -32421-2 0  9990
2 68712  53.1598 195.8542 0001119  49.3573 310.7549 15.85207139  1476
